NORAD_CAT_ID,OBJECT_NAME,OBJECT_TYPE,EPOCH,MEAN_MOTION,ECCENTRICITY,INCLINATION,RA_OF_ASC_NODE,ARG_OF_PERICENTER,MEAN_ANOMALY,BSTAR,MEAN_MOTION_DOT,MEAN_MOTION_DDOT,TLE_LINE0,TLE_LINE1,TLE_LINE2,SEMIMAJOR_AXIS,PERIOD,APOGEE,PERIGEE,DECAYED
55306.0,STARLINK-5295,PAYLOAD,2023-12-26 01:30:53,14.98333948,0.0002364,69.9992,233.3402,264.1524,95.9366,9.2917e-05,1.016e-05,0.0,0 STARLINK-5295,1 55306U 23010AP  23360.06311636  .00001016  00000-0  92917-4 0  9995,2 55306  69.9992 233.3402 0002364 264.1524  95.9366 14.98333948 52929,6950.181,96.107,573.689,570.403,0.0
55306.0,STARLINK-5295,PAYLOAD,2023-12-26 19:08:22,14.98328754,0.0002307,69.9994,231.4897,260.6948,99.395,2.3199e-05,1.84e-06,0.0,0 STARLINK-5295,1 55306U 23010AP  23360.79748054  .00000184  00000-0  23199-4 0  9994,2 55306  69.9994 231.4897 0002307 260.6948  99.3950 14.98328754 53035,6950.197,96.107,573.665,570.458,0.0
55306.0,STARLINK-5295,PAYLOAD,2023-12-26 22:20:38,14.98328724,0.000222,69.9995,231.153,259.4115,100.6794,3.4806e-05,3.22e-06,0.0,0 STARLINK-5295,1 55306U 23010AP  23360.93100011  .00000322  00000-0  34806-4 0  9996,2 55306  69.9995 231.1530 0002220 259.4115 100.6794 14.98328724 53379,6950.197,96.107,573.605,570.519,0.0
55306.0,STARLINK-5295,PAYLOAD,2023-12-27 01:32:54,14.98328311,0.0002281,69.9993,230.8157,265.1315,94.9583,3.9454e-05,3.78e-06,0.0,0 STARLINK-5295,1 55306U 23010AP  23361.06452045  .00000378  00000-0  39454-4 0  9993,2 55306  69.9993 230.8157 0002281 265.1315  94.9583 14.98328311 53396,6950.198,96.107,573.648,570.478,0.0
55306.0,STARLINK-5295,PAYLOAD,2023-12-27 19:10:23,14.98331788,0.0002372,69.9992,228.9641,265.2527,94.8361,-3.4845e-05,-5.09e-06,0.0,0 STARLINK-5295,1 55306U 23010AP  23361.79888008 -.00000509  00000-0 -34845-4 0  9992,2 55306  69.9992 228.9641 0002372 265.2527  94.8361 14.98331788 53180,6950.187,96.107,573.701,570.404,0.0
55306.0,STARLINK-5295,PAYLOAD,2023-12-27 20:46:31,14.98316694,0.0002304,69.9993,228.795,269.3944,90.6951,0.00019213,2.199e-05,0.0,0 STARLINK-5295,1 55306U 23010AP  23361.86564285  .00002199  00000-0  19213-3 0  9994,2 55306  69.9993 228.7950 0002304 269.3944  90.6951 14.98316694 53510,6950.234,96.108,573.7,570.498,0.0
55306.0,STARLINK-5295,PAYLOAD,2023-12-28 14:23:59,14.98327736,0.0002172,69.999,226.9428,260.7826,99.3087,2.1417e-05,1.63e-06,0.0,0 STARLINK-5295,1 55306U 23010AP  23362.59999966  .00000163  00000-0  21417-4 0  9992,2 55306  69.9990 226.9428 0002172 260.7826  99.3087 14.98327736 53621,6950.2,96.107,573.574,570.555,0.0
55306.0,STARLINK-5295,PAYLOAD,2023-12-28 19:12:24,14.98328102,0.0002268,69.999,226.4381,265.7981,94.2919,3.8072e-06,-4.7e-07,0.0,0 STARLINK-5295,1 55306U 23010AP  23362.80028021 -.00000047  00000-0  38072-5 0  9999,2 55306  69.9990 226.4381 0002268 265.7981  94.2919 14.98328102 53331,6950.199,96.107,573.64,570.487,0.0
55306.0,STARLINK-5295,PAYLOAD,2023-12-28 22:24:40,14.98328955,0.0002472,69.9987,226.1014,271.698,88.3896,4.0813e-06,-4.4e-07,0.0,0 STARLINK-5295,1 55306U 23010AP  23362.93380014 -.00000044  00000-0  40813-5 0  9999,2 55306  69.9987 226.1014 0002472 271.6980  88.3896 14.98328955 53670,6950.196,96.107,573.779,570.343,0.0
55306.0,STARLINK-5295,PAYLOAD,2023-12-29 00:00:48,14.98328617,0.0002398,69.9989,225.9333,270.242,89.8464,4.2063e-06,-4.3e-07,0.0,0 STARLINK-5295,1 55306U 23010AP  23363.00056035 -.00000043  00000-0  42063-5 0  9999,2 55306  69.9989 225.9333 0002398 270.2420  89.8464 14.98328617 53687,6950.197,96.107,573.729,570.396,0.0
55306.0,STARLINK-5295,PAYLOAD,2023-12-29 19:14:25,14.98329122,0.0002283,69.9992,223.9143,265.9713,94.1185,2.2105e-05,1.71e-06,0.0,0 STARLINK-5295,1 55306U 23010AP  23363.80167952  .00000171  00000-0  22105-4 0  9993,2 55306  69.9992 223.9143 0002283 265.9713  94.1185 14.98329122 53486,6950.196,96.107,573.647,570.474,0.0
55306.0,STARLINK-5295,PAYLOAD,2023-12-29 22:26:41,14.98330876,0.0002213,69.9992,223.5774,261.3753,98.7155,2.127e-05,1.61e-06,0.0,0 STARLINK-5295,1 55306U 23010AP  23363.93519801  .00000161  00000-0  21270-4 0  9992,2 55306  69.9992 223.5774 0002213 261.3753  98.7155 14.98330876 53822,6950.19,96.107,573.593,570.517,0.0
55306.0,STARLINK-5295,PAYLOAD,2023-12-30 01:38:57,14.98330677,0.000226,69.999,223.2409,264.3882,95.7019,1.7398e-05,1.15e-06,0.0,0 STARLINK-5295,1 55306U 23010AP  23364.06871822  .00000115  00000-0  17398-4 0  9996,2 55306  69.9990 223.2409 0002260 264.3882  95.7019 14.98330677 53847,6950.191,96.107,573.627,570.485,0.0
55306.0,STARLINK-5295,PAYLOAD,2023-12-30 19:16:25,14.98329813,0.0002372,69.9987,221.3886,267.1503,92.9385,2.4581e-05,2e-06,0.0,0 STARLINK-5295,1 55306U 23010AP  23364.80307765  .00000200  00000-0  24581-4 0  9995,2 55306  69.9987 221.3886 0002372 267.1503  92.9385 14.98329813 53638,6950.193,96.107,573.707,570.41,0.0
55306.0,STARLINK-5295,PAYLOAD,2023-12-30 22:28:42,14.98329985,0.0002363,69.9987,221.0519,266.7373,93.3515,2.564e-05,2.13e-06,0.0,0 STARLINK-5295,1 55306U 23010AP  23364.93659737  .00000213  00000-0  25640-4 0  9999,2 55306  69.9987 221.0519 0002363 266.7373  93.3515 14.98329985 53975,6950.193,96.107,573.7,570.416,0.0
55306.0,STARLINK-5295,PAYLOAD,2023-12-31 19:18:26,14.9832968,0.0002458,69.9983,218.863,270.5736,89.5141,-2.6922e-05,-4.14e-06,0.0,0 STARLINK-5295,1 55306U 23010AP  23365.80447875 -.00000414  00000-0 -26922-4 0  9993,2 55306  69.9983 218.8630 0002458 270.5736  89.5141 14.98329680 53783,6950.194,96.107,573.767,570.351,0.0
55306.0,STARLINK-5295,PAYLOAD,2023-12-31 22:30:43,14.98329982,0.0002453,69.9983,218.5264,270.7271,89.3607,-2.2117e-05,-3.57e-06,0.0,0 STARLINK-5295,1 55306U 23010AP  23365.93799835 -.00000357  00000-0 -22117-4 0  9991,2 55306  69.9983 218.5264 0002453 270.7271  89.3607 14.98329982 54123,6950.193,96.107,573.763,570.353,0.0
55306.0,STARLINK-5295,PAYLOAD,2024-01-01 14:32:03,14.98331294,0.0002491,69.9983,216.8437,271.903,88.1843,2.9516e-06,-5.8e-07,0.0,0 STARLINK-5295,1 55306U 23010AP  24001.60559639 -.00000058  00000-0  29516-5 0  9997,2 55306  69.9983 216.8437 0002491 271.9030  88.1843 14.98331294 54223,6950.189,96.107,573.785,570.323,0.0
55306.0,STARLINK-5295,PAYLOAD,2024-01-01 19:20:27,14.98331953,0.0002485,69.9984,216.3386,271.9967,88.0907,1.2119e-05,5.2e-07,0.0,0 STARLINK-5295,1 55306U 23010AP  24001.80587545  .00000052  00000-0  12119-4 0  9999,2 55306  69.9984 216.3386 0002485 271.9967  88.0907 14.98331953 53933,6950.187,96.107,573.779,570.325,0.0
55306.0,STARLINK-5295,PAYLOAD,2024-01-01 22:32:43,14.98333105,0.0002463,69.9984,216.0017,271.7076,88.3801,2.7171e-05,2.31e-06,0.0,0 STARLINK-5295,1 55306U 23010AP  24001.93939405  .00000231  00000-0  27171-4 0  9992,2 55306  69.9984 216.0017 0002463 271.7076  88.3801 14.98333105 54271,6950.183,96.107,573.76,570.336,0.0
55306.0,STARLINK-5295,PAYLOAD,2024-01-02 14:34:04,14.98330463,0.0002427,69.9985,214.3187,272.4109,87.6772,2.1405e-05,1.62e-06,0.0,0 STARLINK-5295,1 55306U 23010AP  24002.60699524  .00000162  00000-0  21405-4 0  9999,2 55306  69.9985 214.3187 0002427 272.4109  87.6772 14.98330463 54370,6950.191,96.107,573.743,570.37,0.0
55306.0,STARLINK-5295,PAYLOAD,2024-01-02 19:22:28,14.98330329,0.0002429,69.9984,213.8138,271.7175,88.3706,1.8428e-05,1.27e-06,0.0,0 STARLINK-5295,1 55306U 23010AP  24002.80727521  .00000127  00000-0  18428-4 0  9992,2 55306  69.9984 213.8138 0002429 271.7175  88.3706 14.98330329 54080,6950.192,96.107,573.745,570.369,0.0
55306.0,STARLINK-5295,PAYLOAD,2024-01-02 22:34:44,14.98331057,0.0002412,69.9984,213.477,271.5516,88.5367,2.7031e-05,2.3e-06,0.0,0 STARLINK-5295,1 55306U 23010AP  24002.94079434  .00000230  00000-0  27031-4 0  9995,2 55306  69.9984 213.4770 0002412 271.5516  88.5367 14.98331057 54429,6950.19,96.107,573.731,570.378,0.0
55306.0,STARLINK-5295,PAYLOAD,2024-01-03 14:36:05,14.98331676,0.0002334,69.9985,211.7941,271.1728,88.9163,-1.2374e-05,-2.41e-06,0.0,0 STARLINK-5295,1 55306U 23010AP  24003.60839444 -.00000241  00000-0 -12374-4 0  9992,2 55306  69.9985 211.7941 0002334 271.1728  88.9163 14.98331676 54521,6950.188,96.107,573.675,570.431,0.0
55306.0,STARLINK-5295,PAYLOAD,2024-01-03 19:24:29,14.98331125,0.0002408,69.9983,211.2893,269.7757,90.3126,-1.5956e-05,-2.83e-06,0.0,0 STARLINK-5295,1 55306U 23010AP  24003.80867448 -.00000283  00000-0 -15956-4 0  9994,2 55306  69.9983 211.2893 0002408 269.7757  90.3126 14.98331125 54230,6950.189,96.107,573.728,570.381,0.0
55306.0,STARLINK-5295,PAYLOAD,2024-01-03 22:36:45,14.98330402,0.0002269,69.9981,210.9524,267.212,92.878,-2.3716e-05,-3.76e-06,0.0,0 STARLINK-5295,1 55306U 23010AP  24003.94219507 -.00000376  00000-0 -23716-4 0  9992,2 55306  69.9981 210.9524 0002269 267.2120  92.8780 14.98330402 54574,6950.192,96.107,573.634,570.48,0.0
55306.0,STARLINK-5295,PAYLOAD,2024-01-04 14:38:06,14.9836613,0.0002291,69.9983,209.2698,269.3438,90.7459,-0.0006376,-7.699e-05,0.0,0 STARLINK-5295,1 55306U 23010AP  24004.60979248 -.00007699  00000-0 -63760-3 0  9998,2 55306  69.9983 209.2698 0002291 269.3438  90.7459 14.98366130 54677,6950.081,96.105,573.538,570.354,0.0
55306.0,STARLINK-5295,PAYLOAD,2024-01-04 21:02:38,14.98343388,0.0002413,69.9982,208.5964,272.682,87.4063,-0.00028484,-3.491e-05,0.0,0 STARLINK-5295,1 55306U 23010AP  24004.87683316 -.00003491  00000-0 -28484-3 0  9995,2 55306  69.9982 208.5964 0002413 272.6820  87.4063 14.98343388 54395,6950.151,96.106,573.694,570.339,0.0
55306.0,STARLINK-5295,PAYLOAD,2024-01-04 22:38:46,14.9832769,0.000231,69.9982,208.4278,264.7893,95.3002,-2.8379e-05,-4.31e-06,0.0,0 STARLINK-5295,1 55306U 23010AP  24004.94359673 -.00000431  00000-0 -28379-4 0  9994,2 55306  69.9982 208.4278 0002310 264.7893  95.3002 14.98327690 54726,6950.2,96.107,573.671,570.46,0.0
55306.0,STARLINK-5295,PAYLOAD,2024-01-05 00:14:54,14.98324289,0.0002091,69.9982,208.2598,267.4346,92.6574,2.4811e-06,-6.3e-07,0.0,0 STARLINK-5295,1 55306U 23010AP  24005.01035873 -.00000063  00000-0  24811-5 0  9994,2 55306  69.9982 208.2598 0002091 267.4346  92.6574 14.98324289 54419,6950.211,96.107,573.529,570.622,0.0
